start=new Date('%Y-%m-41T00:00:00.000Z').valueOf();
sats=[{"PERIAPSIS":"545.843","SITE":"AFETR","REF_FRAME":"TEME","MEAN_ANOMALY":"257.1606","INCLINATION":"53.0561","NORAD_CAT_ID":"48129","REV_AT_EPOCH":"2193","LAUNCH_DATE":"2021-04-07","MEAN_ELEMENT_THEORY":"SGP4","RCS_SIZE":"LARGE","COUNTRY_CODE":"US","ELEMENT_SET_NO":"999","PERIOD":"95.593","MEAN_MOTION":"15.06389745","OBJECT_NAME":"STARLINK-2471","MEAN_MOTION_DOT":"0.00000511","EPHEMERIS_TYPE":"0","TLE_LINE2":"2 48129  53.0561  72.0698 0002025 102.9609 257.1606 15.06389745 21934","MEAN_MOTION_DDOT":"0.0000000000000","EPOCH":"2021-08-20T19:26:50.494560","SEMIMAJOR_AXIS":"6925.380","TIME_SYSTEM":"UTC","TLE_LINE1":"1 48129U 21027AP  21232.81030665  .00000511  00000-0  53226-4 0  9994","BSTAR":"0.00005322600000","ECCENTRICITY":"0.00020250","OBJECT_TYPE":"PAYLOAD","CENTER_NAME":"EARTH","RA_OF_ASC_NODE":"72.0698","CLASSIFICATION_TYPE":"U","GP_ID":"183155884","OBJECT_ID":"2021-027AP","DECAY_DATE":null,"FILE":"3100512","APOAPSIS":"548.647","ARG_OF_PERICENTER":"102.9609"},{"MEAN_MOTION_DOT":"-0.00001529","MEAN_MOTION":"15.06390789","OBJECT_NAME":"STARLINK-2472","PERIOD":"95.593","ELEMENT_SET_NO":"999","EPOCH":"2021-08-20T14:24:55.351296","MEAN_MOTION_DDOT":"0.0000000000000","TLE_LINE2":"2 48130  53.0585  78.0143 0002278  84.4084 275.7164 15.06390789 21838","EPHEMERIS_TYPE":"0","INCLINATION":"53.0585","MEAN_ANOMALY":"275.7164","SITE":"AFETR","REF_FRAME":"TEME","PERIAPSIS":"545.664","COUNTRY_CODE":"US","RCS_SIZE":"LARGE","LAUNCH_DATE":"2021-04-07","REV_AT_EPOCH":"2183","MEAN_ELEMENT_THEORY":"SGP4","NORAD_CAT_ID":"48130","FILE":"3100512","DECAY_DATE":null,"OBJECT_ID":"2021-027AQ","GP_ID":"183156635","ARG_OF_PERICENTER":"84.4084","APOAPSIS":"548.819","BSTAR":"-0.00008377300000","TIME_SYSTEM":"UTC","TLE_LINE1":"1 48130U 21027AQ  21232.60064064 -.00001529  00000-0 -83773-4 0  9995","SEMIMAJOR_AXIS":"6925.377","CLASSIFICATION_TYPE":"U","RA_OF_ASC_NODE":"78.0143","CENTER_NAME":"EARTH","OBJECT_TYPE":"PAYLOAD","ECCENTRICITY":"0.00022780"},{"TLE_LINE1":"1 48131U 21027AR  21232.81951098  .00000567  00000-0  56979-4 0  9998","TIME_SYSTEM":"UTC","BSTAR":"0.00005697900000","SEMIMAJOR_AXIS":"6925.357","CENTER_NAME":"EARTH","RA_OF_ASC_NODE":"52.0498","CLASSIFICATION_TYPE":"U","ECCENTRICITY":"0.00019080","OBJECT_TYPE":"PAYLOAD","OBJECT_ID":"2021-027AR","DECAY_DATE":null,"FILE":"3100512","GP_ID":"183154883","APOAPSIS":"548.543","ARG_OF_PERICENTER":"108.0049","MEAN_ANOMALY":"252.1148","INCLINATION":"53.0561","PERIAPSIS":"545.900","REF_FRAME":"TEME","SITE":"AFETR","LAUNCH_DATE":"2021-04-07","REV_AT_EPOCH":"2221","MEAN_ELEMENT_THEORY":"SGP4","COUNTRY_CODE":"US","RCS_SIZE":"LARGE","NORAD_CAT_ID":"48131","MEAN_MOTION_DOT":"0.00000567","ELEMENT_SET_NO":"999","PERIOD":"95.592","OBJECT_NAME":"STARLINK-2473","MEAN_MOTION":"15.06397406","EPOCH":"2021-08-20T19:40:05.748672","EPHEMERIS_TYPE":"0","TLE_LINE2":"2 48131  53.0561  52.0498 0001908 108.0049 252.1148 15.06397406 22218","MEAN_MOTION_DDOT":"0.0000000000000"},{"SEMIMAJOR_AXIS":"6925.364","BSTAR":"-0.00008251500000","TLE_LINE1":"1 48132U 21027AS  21232.79924589 -.00001510  00000-0 -82515-4 0  9997","TIME_SYSTEM":"UTC","OBJECT_TYPE":"PAYLOAD","ECCENTRICITY":"0.00019660","CLASSIFICATION_TYPE":"U","CENTER_NAME":"EARTH","RA_OF_ASC_NODE":"72.1215","GP_ID":"183155133","FILE":"3100512","OBJECT_ID":"2021-027AS","DECAY_DATE":null,"ARG_OF_PERICENTER":"93.1227","APOAPSIS":"548.591","REF_FRAME":"TEME","SITE":"AFETR","PERIAPSIS":"545.868","MEAN_ANOMALY":"266.9987","INCLINATION":"53.0564","NORAD_CAT_ID":"48132","MEAN_ELEMENT_THEORY":"SGP4","LAUNCH_DATE":"2021-04-07","REV_AT_EPOCH":"2192","COUNTRY_CODE":"US","RCS_SIZE":"LARGE","MEAN_MOTION":"15.06394933","OBJECT_NAME":"STARLINK-2474","ELEMENT_SET_NO":"999","PERIOD":"95.592","MEAN_MOTION_DOT":"-0.00001510","TLE_LINE2":"2 48132  53.0564  72.1215 0001966  93.1227 266.9987 15.06394933 21921","EPHEMERIS_TYPE":"0","MEAN_MOTION_DDOT":"0.0000000000000","EPOCH":"2021-08-20T19:10:54.844896"},{"ARG_OF_PERICENTER":"91.1327","APOAPSIS":"548.702","GP_ID":"183156385","FILE":"3100512","OBJECT_ID":"2021-027AT","DECAY_DATE":null,"OBJECT_TYPE":"PAYLOAD","ECCENTRICITY":"0.00021340","CLASSIFICATION_TYPE":"U","CENTER_NAME":"EARTH","RA_OF_ASC_NODE":"72.1387","SEMIMAJOR_AXIS":"6925.359","BSTAR":"-0.00004408400000","TLE_LINE1":"1 48133U 21027AT  21232.79555959 -.00000938  00000-0 -44084-4 0  9991","TIME_SYSTEM":"UTC","TLE_LINE2":"2 48133  53.0563  72.1387 0002134  91.1327 268.9907 15.06396523 21930","EPHEMERIS_TYPE":"0","MEAN_MOTION_DDOT":"0.0000000000000","EPOCH":"2021-08-20T19:05:36.348576","OBJECT_NAME":"STARLINK-2475","MEAN_MOTION":"15.06396523","ELEMENT_SET_NO":"999","PERIOD":"95.592","MEAN_MOTION_DOT":"-0.00000938","NORAD_CAT_ID":"48133","MEAN_ELEMENT_THEORY":"SGP4","LAUNCH_DATE":"2021-04-07","REV_AT_EPOCH":"2193","RCS_SIZE":"LARGE","COUNTRY_CODE":"US","SITE":"AFETR","REF_FRAME":"TEME","PERIAPSIS":"545.746","MEAN_ANOMALY":"268.9907","INCLINATION":"53.0563"},{"FILE":"3100794","DECAY_DATE":null,"OBJECT_ID":"2021-027AU","GP_ID":"183164062","ARG_OF_PERICENTER":"87.3218","APOAPSIS":"548.624","BSTAR":"-0.00005595200000","TIME_SYSTEM":"UTC","TLE_LINE1":"1 48134U 21027AU  21233.37793562 -.00001115  00000-0 -55952-4 0  9995","SEMIMAJOR_AXIS":"6925.368","CLASSIFICATION_TYPE":"U","RA_OF_ASC_NODE":"69.5238","CENTER_NAME":"EARTH","OBJECT_TYPE":"PAYLOAD","ECCENTRICITY":"0.00020080","MEAN_MOTION_DOT":"-0.00001115","OBJECT_NAME":"STARLINK-2476","MEAN_MOTION":"15.06393567","PERIOD":"95.593","ELEMENT_SET_NO":"999","EPOCH":"2021-08-21T09:04:13.637568","MEAN_MOTION_DDOT":"0.0000000000000","TLE_LINE2":"2 48134  53.0562  69.5238 0002008  87.3218 272.8001 15.06393567 21621","EPHEMERIS_TYPE":"0","INCLINATION":"53.0562","MEAN_ANOMALY":"272.8001","REF_FRAME":"TEME","SITE":"AFETR","PERIAPSIS":"545.843","COUNTRY_CODE":"US","RCS_SIZE":"LARGE","MEAN_ELEMENT_THEORY":"SGP4","LAUNCH_DATE":"2021-04-07","REV_AT_EPOCH":"2162","NORAD_CAT_ID":"48134"},{"GP_ID":"183155384","OBJECT_ID":"2021-027AV","DECAY_DATE":null,"FILE":"3100512","APOAPSIS":"548.606","ARG_OF_PERICENTER":"96.6516","SEMIMAJOR_AXIS":"6925.380","TLE_LINE1":"1 48135U 21027AV  21232.83285094 -.00001190  00000-0 -61020-4 0  9998","TIME_SYSTEM":"UTC","BSTAR":"-0.00006102000000","ECCENTRICITY":"0.00019660","OBJECT_TYPE":"PAYLOAD","CENTER_NAME":"EARTH","RA_OF_ASC_NODE":"76.9744","CLASSIFICATION_TYPE":"U","ELEMENT_SET_NO":"999","PERIOD":"95.593","OBJECT_NAME":"STARLINK-2478","MEAN_MOTION":"15.06389761","MEAN_MOTION_DOT":"-0.00001190","TLE_LINE2":"2 48135  53.0558  76.9744 0001966  96.6516 263.4697 15.06389761 21861","EPHEMERIS_TYPE":"0","MEAN_MOTION_DDOT":"0.0000000000000","EPOCH":"2021-08-20T19:59:18.321216","PERIAPSIS":"545.883","SITE":"AFETR","REF_FRAME":"TEME","MEAN_ANOMALY":"263.4697","INCLINATION":"53.0558","NORAD_CAT_ID":"48135","MEAN_ELEMENT_THEORY":"SGP4","LAUNCH_DATE":"2021-04-07","REV_AT_EPOCH":"2186","COUNTRY_CODE":"US","RCS_SIZE":"LARGE"},{"NORAD_CAT_ID":"48136","RCS_SIZE":"LARGE","COUNTRY_CODE":"US","LAUNCH_DATE":"2021-04-07","REV_AT_EPOCH":"2193","MEAN_ELEMENT_THEORY":"SGP4","SITE":"AFETR","REF_FRAME":"TEME","PERIAPSIS":"545.724","INCLINATION":"53.0556","MEAN_ANOMALY":"268.1672","MEAN_MOTION_DDOT":"0.0000000000000","TLE_LINE2":"2 48136  53.0556  72.0854 0002193  91.9568 268.1672 15.06390599 21931","EPHEMERIS_TYPE":"0","EPOCH":"2021-08-20T19:21:31.765824","MEAN_MOTION":"15.06390599","OBJECT_NAME":"STARLINK-2479","PERIOD":"95.593","ELEMENT_SET_NO":"999","MEAN_MOTION_DOT":"-0.00001487","OBJECT_TYPE":"PAYLOAD","ECCENTRICITY":"0.00021930","CLASSIFICATION_TYPE":"U","RA_OF_ASC_NODE":"72.0854","CENTER_NAME":"EARTH","SEMIMAJOR_AXIS":"6925.377","BSTAR":"-0.00008093000000","TIME_SYSTEM":"UTC","TLE_LINE1":"1 48136U 21027AW  21232.80661766 -.00001487  00000-0 -80930-4 0  9990","ARG_OF_PERICENTER":"91.9568","APOAPSIS":"548.761","GP_ID":"183155634","FILE":"3100512","DECAY_DATE":null,"OBJECT_ID":"2021-027AW"},{"TIME_SYSTEM":"UTC","TLE_LINE1":"1 48137U 21027AX  21233.09869502 -.00000954  00000-0 -45155-4 0  9999","BSTAR":"-0.00004515500000","SEMIMAJOR_AXIS":"6925.372","CENTER_NAME":"EARTH","RA_OF_ASC_NODE":"50.8630","CLASSIFICATION_TYPE":"U","ECCENTRICITY":"0.00021350","OBJECT_TYPE":"PAYLOAD","OBJECT_ID":"2021-027AX","DECAY_DATE":null,"FILE":"3100624","GP_ID":"183159638","APOAPSIS":"548.716","ARG_OF_PERICENTER":"113.2042","MEAN_ANOMALY":"246.9172","INCLINATION":"53.0373","PERIAPSIS":"545.759","SITE":"AFETR","REF_FRAME":"TEME","MEAN_ELEMENT_THEORY":"SGP4","LAUNCH_DATE":"2021-04-07","REV_AT_EPOCH":"2185","RCS_SIZE":"LARGE","COUNTRY_CODE":"US","NORAD_CAT_ID":"48137","MEAN_MOTION_DOT":"-0.00000954","ELEMENT_SET_NO":"999","PERIOD":"95.593","MEAN_MOTION":"15.06392321","OBJECT_NAME":"STARLINK-2480","EPOCH":"2021-08-21T02:22:07.249728","TLE_LINE2":"2 48137  53.0373  50.8630 0002135 113.2042 246.9172 15.06392321 21851","EPHEMERIS_TYPE":"0","MEAN_MOTION_DDOT":"0.0000000000000"},{"CENTER_NAME":"EARTH","RA_OF_ASC_NODE":"73.3474","CLASSIFICATION_TYPE":"U","ECCENTRICITY":"0.00020300","OBJECT_TYPE":"PAYLOAD","TIME_SYSTEM":"UTC","TLE_LINE1":"1 48138U 21027AY  21232.52648707  .00000345  00000-0  42077-4 0  9991","BSTAR":"0.00004207700000","SEMIMAJOR_AXIS":"6925.386","APOAPSIS":"548.657","ARG_OF_PERICENTER":"89.6965","OBJECT_ID":"2021-027AY","DECAY_DATE":null,"FILE":"3100512","GP_ID":"183156636","REV_AT_EPOCH":"2189","LAUNCH_DATE":"2021-04-07","MEAN_ELEMENT_THEORY":"SGP4","COUNTRY_CODE":"US","RCS_SIZE":"LARGE","NORAD_CAT_ID":"48138","MEAN_ANOMALY":"270.4257","INCLINATION":"53.0567","PERIAPSIS":"545.845","REF_FRAME":"TEME","SITE":"AFETR","EPOCH":"2021-08-20T12:38:08.482848","TLE_LINE2":"2 48138  53.0567  73.3474 0002030  89.6965 270.4257 15.06387678 21896","EPHEMERIS_TYPE":"0","MEAN_MOTION_DDOT":"0.0000000000000","MEAN_MOTION_DOT":"0.00000345","ELEMENT_SET_NO":"999","PERIOD":"95.593","OBJECT_NAME":"STARLINK-2481","MEAN_MOTION":"15.06387678"}];
